H1 CPF  2  DGF 2024 03 16 10 076 01 lageos2    NONE      
H2  9207002 5986    22195 2024 03 16 00 00 00 2024 03 23 00 00 00    60 1 1  0 0 0 1
H5  0.2443
H9
10 0 60391   7200.000000  0         53765.477      -8214911.449       9073036.880
10 0 60391   7260.000000  0        325937.694      -8100136.062       9164442.940
10 0 60391   7320.000000  0        598881.988      -7981560.556       9248669.430
10 0 60391   7380.000000  0        872422.325      -7859275.122       9325643.009
10 0 60391   7440.000000  0       1146380.975      -7733371.325       9395295.778
10 0 60391   7500.000000  0       1420578.624      -7603942.043       9457565.344
10 0 60391   7560.000000  0       1694834.492      -7471081.396       9512394.898
10 0 60391   7620.000000  0       1968966.449      -7334884.681       9559733.275
10 0 60391   7680.000000  0       2242791.138      -7195448.303       9599535.021
10 0 60391   7740.000000  0       2516124.099      -7052869.712       9631760.452
10 0 60391   7800.000000  0       2788779.897      -6907247.332       9656375.707
10 0 60391   7860.000000  0       3060572.251      -6758680.493       9673352.801
10 0 60391   7920.000000  0       3331314.165      -6607269.369       9682669.674
10 0 60391   7980.000000  0       3600818.068      -6453114.906       9684310.236
10 0 60391   8040.000000  0       3868895.946      -6296318.757       9678264.400
10 0 60391   8100.000000  0       4135359.487      -6136983.215       9664528.127
10 0 60391   8160.000000  0       4400020.219      -5975211.143       9643103.449
10 0 60391   8220.000000  0       4662689.658      -5811105.915       9613998.502
10 0 60391   8280.000000  0       4923179.453      -5644771.340       9577227.542
10 0 60391   8340.000000  0       5181301.538      -5476311.601       9532810.968
10 0 60391   8400.000000  0       5436868.276      -5305831.191       9480775.330
10 0 60391   8460.000000  0       5689692.621      -5133434.840       9421153.341
10 0 60391   8520.000000  0       5939588.263      -4959227.458       9353983.877
10 0 60391   8580.000000  0       6186369.791      -4783314.063       9279311.972
10 0 60391   8640.000000  0       6429852.846      -4605799.721       9197188.819
10 0 60391   8700.000000  0       6669854.282      -4426789.479       9107671.746
10 0 60391   8760.000000  0       6906192.324      -4246388.303       9010824.209
10 0 60391   8820.000000  0       7138686.729      -4064701.013       8906715.758
10 0 60391   8880.000000  0       7367158.948      -3881832.223       8795422.017
10 0 60391   8940.000000  0       7591432.288      -3697886.276       8677024.641
10 0 60391   9000.000000  0       7811332.071      -3512967.183       8551611.283
10 0 60391   9060.000000  0       8026685.804      -3327178.567       8419275.541
10 0 60391   9120.000000  0       8237323.332      -3140623.594       8280116.913
10 0 60391   9180.000000  0       8443077.008      -2953404.922       8134240.733
10 0 60391   9240.000000  0       8643781.853      -2765624.638       7981758.110
10 0 60391   9300.000000  0       8839275.717      -2577384.203       7822785.861
10 0 60391   9360.000000  0       9029399.437      -2388784.392       7657446.430
10 0 60391   9420.000000  0       9213997.004      -2199925.241       7485867.813
10 0 60391   9480.000000  0       9392915.713      -2010905.992       7308183.465
10 0 60391   9540.000000  0       9566006.328      -1821825.037       7124532.211
10 0 60391   9600.000000  0       9733123.230      -1632779.868       6935058.145
10 0 60391   9660.000000  0       9894124.576      -1443867.023       6739910.523
10 0 60391   9720.000000  0      10048872.449      -1255182.038       6539243.659
10 0 60391   9780.000000  0      10197233.006      -1066819.395       6333216.800
10 0 60391   9840.000000  0      10339076.624       -878872.475       6121994.010
10 0 60391   9900.000000  0      10474278.047       -691433.515       5905744.036
10 0 60391   9960.000000  0      10602716.522       -504593.556       5684640.182
10 0 60391  10020.000000  0      10724275.939       -318442.403       5458860.163
10 0 60391  10080.000000  0      10838844.965       -133068.583       5228585.962
10 0 60391  10140.000000  0      10946317.170         51440.699       4994003.684
10 0 60391  10200.000000  0      11046591.160        234999.597       4755303.396
10 0 60391  10260.000000  0      11139570.690        417523.662       4512678.969
10 0 60391  10320.000000  0      11225164.790        598929.880       4266327.913
10 0 60391  10380.000000  0      11303287.871        779136.708       4016451.208
10 0 60391  10440.000000  0      11373859.834        958064.103       3763253.126
10 0 60391  10500.000000  0      11436806.176       1135633.556       3506941.059
10 0 60391  10560.000000  0      11492058.085       1311768.122       3247725.330
10 0 60391  10620.000000  0      11539552.529       1486392.450       2985819.009
10 0 60391  10680.000000  0      11579232.349       1659432.802       2721437.721
10 0 60391  10740.000000  0      11611046.332       1830817.085       2454799.454
10 0 60391  10800.000000  0      11634949.292       2000474.870       2186124.360
10 0 60391  10860.000000  0      11650902.134       2168337.415       1915634.553
10 0 60391  10920.000000  0      11658871.917       2334337.678       1643553.909
10 0 60391  10980.000000  0      11658831.909       2498410.343       1370107.858
10 0 60391  11040.000000  0      11650761.640       2660491.826       1095523.175
10 0 60391  11100.000000  0      11634646.939       2820520.294        820027.772
10 0 60391  11160.000000  0      11610479.972       2978435.673        543850.484
10 0 60391  11220.000000  0      11578259.272       3134179.661        267220.857
10 0 60391  11280.000000  0      11537989.759       3287695.731         -9631.069
10 0 60391  11340.000000  0      11489682.756       3438929.137       -286474.973
10 0 60391  11400.000000  0      11433355.996       3587826.921       -563080.470
10 0 60391  11460.000000  0      11369033.624       3734337.910       -839217.330
10 0 60391  11520.000000  0      11296746.191       3878412.721      -1114655.689
10 0 60391  11580.000000  0      11216530.639       4020003.754      -1389166.271
10 0 60391  11640.000000  0      11128430.284       4159065.187      -1662520.602
10 0 60391  11700.000000  0      11032494.783       4295552.979      -1934491.221
10 0 60391  11760.000000  0      10928780.107       4429424.849      -2204851.901
10 0 60391  11820.000000  0      10817348.494       4560640.281      -2473377.852
10 0 60391  11880.000000  0      10698268.403       4689160.500      -2739845.940
10 0 60391  11940.000000  0      10571614.461       4814948.467      -3004034.890
10 0 60391  12000.000000  0      10437467.397       4937968.863      -3265725.495
10 0 60391  12060.000000  0      10295913.977       5058188.073      -3524700.818
10 0 60391  12120.000000  0      10147046.929       5175574.165      -3780746.391
10 0 60391  12180.000000  0       9990964.860       5290096.875      -4033650.418
10 0 60391  12240.000000  0       9827772.171       5401727.588      -4283203.961
10 0 60391  12300.000000  0       9657578.963       5510439.308      -4529201.139
10 0 60391  12360.000000  0       9480500.935       5616206.645      -4771439.311
10 0 60391  12420.000000  0       9296659.283       5719005.782      -5009719.254
10 0 60391  12480.000000  0       9106180.586       5818814.456      -5243845.352
10 0 60391  12540.000000  0       8909196.691       5915611.925      -5473625.758
10 0 60391  12600.000000  0       8705844.593       6009378.948      -5698872.573
10 0 60391  12660.000000  0       8496266.306       6100097.747      -5919402.005
10 0 60391  12720.000000  0       8280608.734       6187751.985      -6135034.528
10 0 60391  12780.000000  0       8059023.533       6272326.732      -6345595.038
10 0 60391  12840.000000  0       7831666.976       6353808.433      -6550913.002
10 0 60391  12900.000000  0       7598699.801       6432184.879      -6750822.599
10 0 60391  12960.000000  0       7360287.069       6507445.172      -6945162.860
10 0 60391  13020.000000  0       7116598.010       6579579.695      -7133777.796
10 0 60391  13080.000000  0       6867805.868       6648580.073      -7316516.529
10 0 60391  13140.000000  0       6614087.740       6714439.147      -7493233.407
10 0 60391  13200.000000  0       6355624.420       6777150.932      -7663788.122
10 0 60391  13260.000000  0       6092600.230       6836710.590      -7828045.813
10 0 60391  13320.000000  0       5825202.854       6893114.389      -7985877.174
10 0 60391  13380.000000  0       5553623.169       6946359.674      -8137158.543
10 0 60391  13440.000000  0       5278055.076       6996444.830      -8281771.997
10 0 60391  13500.000000  0       4998695.326       7043369.249      -8419605.430
10 0 60391  13560.000000  0       4715743.342       7087133.293      -8550552.633
10 0 60391  13620.000000  0       4429401.048       7127738.266      -8674513.362
10 0 60391  13680.000000  0       4139872.691       7165186.375      -8791393.405
10 0 60391  13740.000000  0       3847364.661       7199480.700      -8901104.637
10 0 60391  13800.000000  0       3552085.314       7230625.160      -9003565.072
10 0 60391  13860.000000  0       3254244.793       7258624.483      -9098698.911
10 0 60391  13920.000000  0       2954054.848       7283484.171      -9186436.580
10 0 60391  13980.000000  0       2651728.657       7305210.475      -9266714.760
10 0 60391  14040.000000  0       2347480.649       7323810.360      -9339476.419
10 0 60391  14100.000000  0       2041526.320       7339291.477      -9404670.832
10 0 60391  14160.000000  0       1734082.062       7351662.137      -9462253.592
10 0 60391  14220.000000  0       1425364.976       7360931.279      -9512186.626
10 0 60391  14280.000000  0       1115592.707       7367108.450      -9554438.195
10 0 60391  14340.000000  0        804983.258       7370203.772      -9588982.891
99